2012 HE31,e,0.5323,10.8335,274.7641,1.381889,0.6067287,0.39254906,183.9884,04/18.0/2013,2000,H25.8,0.15
# From MPO246989
2012 HF31,e,9.1059,325.8552,30.2640,1.553420,0.5090619,0.44246347,78.7229,04/18.0/2013,2000,H19.3,0.15
# From MPO252112
2012 HG31,e,10.2145,148.3686,173.0265,2.175323,0.3071980,0.53062833,73.9498,04/18.0/2013,2000,H18.9,0.15
# From MPO232627
2012 HH31,e,3.2908,84.7108,75.3172,1.197650,0.7519846,0.13728197,313.5079,04/18.0/2013,2000,H23.8,0.15
# From MPO229041
2012 HJ31,e,5.6442,223.5599,311.9845,2.417687,0.2621827,0.58563254,102.7026,04/18.0/2013,2000,H24.5,0.15
# From MPO232627
2012 HK31,e,2.2022,222.7016,96.6469,1.073632,0.8859734,0.12065548,226.7463,04/18.0/2013,2000,H25.4,0.15
# From MPO232627
2012 HL31,e,19.8481,37.5434,17.5023,0.887683,1.1784655,0.37456306,205.1961,04/18.0/2013,2000,H22.3,0.15
# From MPO246990
2012 HY33,e,14.6962,63.7510,270.6720,1.998154,0.3489481,0.54350355,72.6796,04/18.0/2013,2000,H19.4,0.15
# From MPO245947
2012 HZ33,e,23.8771,54.9404,231.5447,1.197618,0.7520150,0.21037972,212.2520,04/18.0/2013,2000,H20.4,0.15
# From MPO229042
2012 HA34,e,12.4750,42.3196,241.0645,1.379840,0.6080804,0.36853492,184.2452,04/18.0/2013,2000,H25.3,0.15
# From MPO232627
2012 HB34,e,30.1045,220.7759,233.9895,1.962110,0.3586073,0.67058303,168.3703,04/18.0/2013,2000,H19.5,0.15
# From MPO242006
2012 HC34,e,36.3232,45.2152,275.0174,1.852990,0.3907458,0.39236852,88.6466,04/18.0/2013,2000,H20.0,0.15
# From MPO242006
2012 HN40,e,14.8284,64.2074,242.9124,2.706690,0.2213331,0.67037469,60.1978,04/18.0/2013,2000,H20.4,0.15
# From MPO237424
2012 HR69,e,6.5108,128.4222,167.5565,2.281389,0.2860257,0.46194023,71.5268,04/18.0/2013,2000,H19.9,0.15
# From MPO232631
2012 JA,e,2.2423,42.4064,235.0692,2.111455,0.3212413,0.56279110,98.8036,04/18.0/2013,2000,H24.8,0.15
# From MPO231347
2012 JQ,e,5.8558,44.3045,151.0769,2.255661,0.2909331,0.54665192,107.9183,04/18.0/2013,2000,H23.2,0.15
# From MPO231348
2012 JU,e,7.2215,52.6136,228.9201,2.123947,0.3184114,0.58259950,96.7091,04/18.0/2013,2000,H28.3,0.15
# From MPO235400
2012 JM4,e,2.9012,315.5201,287.5988,1.934325,0.3663615,0.34947138,119.1214,04/18.0/2013,2000,H21.2,0.15
# From MPO231353
2012 JN4,e,20.9803,49.7999,127.1740,1.195271,0.7542315,0.13888074,297.3922,04/18.0/2013,2000,H23.5,0.15
# From MPO231353
2012 JO4,e,1.5821,79.1882,124.0782,1.820661,0.4011997,0.44203980,146.8109,04/18.0/2013,2000,H24.9,0.15
# From MPO231353
2012 JP4,e,14.9864,229.2079,280.1379,1.736503,0.4307159,0.57135498,171.6865,04/18.0/2013,2000,H25.0,0.15
# From MPO234432
2012 JQ4,e,19.8636,53.5366,134.0502,2.433262,0.2596694,0.60784331,97.8166,04/18.0/2013,2000,H21.9,0.15
# From MPO231354
2012 JR4,e,15.9789,56.2202,114.5502,1.267880,0.6903782,0.14643868,281.7609,04/18.0/2013,2000,H24.0,0.15
# From MPO234432
2012 JU4,e,17.0737,224.2396,60.1884,1.792408,0.4107228,0.27557558,105.1456,04/18.0/2013,2000,H20.8,0.15
# From MPO232632
2012 JL5,e,20.8712,206.6543,8.5925,1.663805,0.4592515,0.01980410,15.6349,05/13.0/2012,2000,H20.2,0.15
# From MPEC 2013-H04
2012 JG11,e,24.7240,165.6009,280.3483,0.962257,1.0441614,0.43258725,53.1788,04/18.0/2013,2000,H18.9,0.15
# From MPO235400
2012 JH11,e,6.7156,224.5437,358.8554,1.815101,0.4030445,0.34285117,141.8995,04/18.0/2013,2000,H22.2,0.15
# From MPO252113
2012 JS11,e,9.2046,210.6969,121.2478,2.850259,0.2048225,0.66503259,46.4910,04/18.0/2013,2000,H20.3,0.15
# From MPO235400
2012 JU11,e,4.7948,80.2373,176.3725,1.488477,0.5427389,0.26821664,170.9108,04/18.0/2013,2000,H25.0,0.15
# From MPO231361
2012 JV11,e,0.6644,354.2905,331.1127,1.999070,0.3487081,0.68143022,98.7580,04/18.0/2013,2000,H24.0,0.15
# From MPO235400
2012 JW11,e,2.7176,29.8271,224.6020,2.344183,0.2746103,0.51344165,87.3426,04/18.0/2013,2000,H21.9,0.15
# From MPO235400
2012 JX11,e,7.8247,221.3220,22.9957,1.968055,0.3569836,0.47516944,117.3897,04/18.0/2013,2000,H23.3,0.15
# From MPO235400
2012 JB16,e,35.7501,70.4354,189.1616,1.737201,0.4304562,0.27699867,129.4205,04/18.0/2013,2000,H19.7,0.15
# From MPO253092
2012 JR17,e,7.8177,132.0027,191.9658,2.622050,0.2321361,0.57256111,63.3658,04/18.0/2013,2000,H17.7,0.15
# From MPO253093
2012 JS17,e,15.6420,64.0257,307.3997,1.217171,0.7339671,0.41980370,152.2406,04/18.0/2013,2000,H21.0,0.15
# From MPO246993
2012 JT17,e,14.2867,225.2967,117.7721,2.482011,0.2520568,0.61384267,44.8079,04/18.0/2013,2000,H18.5,0.15
# From MPO231379
2012 KA,e,19.0260,56.9077,234.6008,1.522791,0.5244976,0.41682731,153.4982,04/18.0/2013,2000,H28.6,0.15
# From MPO231380
2012 KW,e,13.4585,60.9821,213.8499,1.500118,0.5364336,0.35026794,162.0957,04/18.0/2013,2000,H26.8,0.15
# From MPO234434
2012 KX,e,3.2300,102.4191,136.1562,2.449067,0.2571597,0.56909319,85.5400,04/18.0/2013,2000,H23.5,0.15
# From MPO231381
2012 KO1,e,5.3411,59.2629,135.9511,2.181176,0.3059623,0.51187866,113.8947,04/18.0/2013,2000,H23.8,0.15
# From MPO235401
2012 KY3,e,21.3877,21.6011,87.2522,1.232077,0.7206882,0.48651613,291.7704,04/18.0/2013,2000,H18.6,0.15
# From MPO234435
2012 KZ3,e,7.0939,64.1531,173.5997,1.818322,0.4019738,0.38720609,134.5497,04/18.0/2013,2000,H24.7,0.15
# From MPO235401
2012 KA4,e,5.8084,215.0865,237.2949,1.100169,0.8541124,0.77992446,327.3668,04/18.0/2013,2000,H21.2,0.15
# From MPO231383
2012 KB4,e,6.3261,60.5066,277.6491,1.092929,0.8626130,0.06073178,193.8125,04/18.0/2013,2000,H25.3,0.15
# From MPO233454
2012 KX4,e,9.0856,153.6573,77.9515,2.966433,0.1929089,0.53308432,67.6120,04/18.0/2013,2000,H19.8,0.15
# From MPO231384
2012 KB6,e,8.0276,63.3394,106.1618,1.357018,0.6234842,0.30866879,245.6870,04/18.0/2013,2000,H25.0,0.15
# From MPO235401
2012 KC6,e,11.3184,195.4219,337.9336,1.240842,0.7130652,0.24640803,279.6241,04/18.0/2013,2000,H21.7,0.15
# From MPO231384
2012 KD6,e,12.0835,237.6415,29.0453,2.088352,0.3265868,0.52462339,100.6199,04/18.0/2013,2000,H23.5,0.15
# From MPO235401
2012 KJ11,e,35.8128,339.6641,304.9884,1.574511,0.4988677,0.57052431,85.1993,04/18.0/2013,2000,H16.8,0.15
# From MPO234435
2012 KK11,e,5.1370,243.0120,357.8309,1.785492,0.4131115,0.39971827,136.7263,04/18.0/2013,2000,H25.3,0.15
# From MPO234435
2012 KL11,e,27.7128,241.2675,307.1944,2.134307,0.3160959,0.41516665,124.3928,04/18.0/2013,2000,H21.0,0.15
# From MPO234435
2012 KM11,e,8.4025,54.5384,249.9323,1.375877,0.6107097,0.26805340,163.0973,04/18.0/2013,2000,H24.5,0.15
# From MPO235401
2012 KN11,e,5.4392,261.2566,237.9552,2.098480,0.3242252,0.65578088,133.0707,04/18.0/2013,2000,H21.9,0.15
# From MPO231386
2012 KO11,e,16.3511,59.1411,289.1514,1.062141,0.9003897,0.12409173,204.2987,04/18.0/2013,2000,H24.6,0.15
# From MPO231387
2012 KT12,e,1.7103,235.7743,25.0048,1.250546,0.7047820,0.19744790,220.1406,04/18.0/2013,2000,H26.3,0.15
# From MPO234435
2012 KU12,e,8.6288,53.2249,74.1518,1.638201,0.4700600,0.48877646,209.9314,04/18.0/2013,2000,H21.6,0.15
# From MPO233457
2012 KV12,e,23.7819,69.0025,268.8738,2.754697,0.2155724,0.51347023,30.4265,04/18.0/2013,2000,H17.9,0.15
# From MPO232641
2012 KD18,e,34.3949,228.4484,153.0319,1.660501,0.4606228,0.12669009,213.5595,05/13.0/2012,2000,H19.9,0.15
# From MPO242006
2012 KJ18,e,9.4903,106.3601,182.2239,2.179102,0.3063992,0.45337491,94.0989,04/18.0/2013,2000,H19.4,0.15
# From MPO245947
2012 KK18,e,16.2645,118.9127,220.7368,2.753624,0.2156985,0.54664214,55.0609,04/18.0/2013,2000,H18.4,0.15
# From MPO235401
2012 KL18,e,19.4528,289.7232,284.2014,2.223916,0.2971848,0.44260643,112.4185,04/18.0/2013,2000,H18.9,0.15
# From MPO234435
2012 KM18,e,6.1471,219.0921,23.4698,1.700425,0.4444961,0.29922387,143.1443,04/18.0/2013,2000,H23.5,0.15
# From MPO234435
2012 KN18,e,2.1816,178.1825,103.2668,2.701819,0.2219319,0.63305609,65.6671,04/18.0/2013,2000,H24.5,0.15
# From MPO234435
2012 KO18,e,5.7086,221.3547,95.0178,2.194780,0.3031221,0.65513228,83.7187,04/18.0/2013,2000,H22.1,0.15
# From MPO231389
2012 KP24,e,18.4767,67.5013,221.4031,1.498637,0.5372291,0.36941385,155.6555,04/18.0/2013,2000,H26.4,0.15
# From MPO234436
2012 KE25,e,11.3757,277.2650,175.7854,1.657355,0.4619347,0.76184010,185.1185,04/18.0/2013,2000,H18.7,0.15
# From MPO231390
2012 KF25,e,16.9398,64.9319,336.0661,0.988894,1.0022576,0.04921637,172.7447,04/18.0/2013,2000,H25.3,0.15
# From MPO231390
2012 KX41,e,4.4212,48.6875,251.9330,2.356357,0.2724848,0.61869238,77.3933,04/18.0/2013,2000,H24.8,0.15
# From MPO242006
2012 KY41,e,23.0383,220.9691,144.0803,2.032029,0.3402586,0.47252371,16.0667,04/18.0/2013,2000,H18.1,0.15
# From MPO234436
2012 KZ41,e,1.5497,92.9577,201.8314,2.226821,0.2966034,0.58719622,85.4510,04/18.0/2013,2000,H25.1,0.15
# From MPO231390
2012 KA42,e,6.1257,245.9778,315.4886,1.303364,0.6623774,0.25044366,242.6563,04/18.0/2013,2000,H27.3,0.15
# From MPO234436
2012 KT42,e,2.1944,69.5819,259.0359,1.597041,0.4883488,0.55456472,133.1958,04/18.0/2013,2000,H29.0,0.15
# From MPO254821
2012 KU42,e,18.9869,136.2692,207.7900,2.201034,0.3018311,0.51488145,78.1058,04/18.0/2013,2000,H17.7,0.15
# From MPO231391
2012 KC45,e,8.6570,247.8191,310.0331,1.177857,0.7710190,0.18137175,285.2139,04/18.0/2013,2000,H29.4,0.15
# From MPO233471
2012 KH45,e,15.0195,223.8207,122.1876,1.650472,0.4648274,0.17078973,77.1462,04/18.0/2013,2000,H19.5,0.15
# From MPO245947
2012 KL45,e,25.1216,100.6517,202.9883,1.687838,0.4494777,0.35620784,135.3192,04/18.0/2013,2000,H18.7,0.15
# From MPO242006
2012 KM45,e,28.2061,95.2311,158.5108,2.267284,0.2886989,0.59288135,88.2478,04/18.0/2013,2000,H18.8,0.15
# From MPEC 2013-E59
2012 KF47,e,11.8875,148.4077,218.5271,1.091904,0.8638286,0.33792712,197.9326,04/18.0/2013,2000,H21.1,0.15
# From MPO245947
2012 LA,e,3.1585,234.1475,79.4380,1.040187,0.9290450,0.02155863,237.9103,04/18.0/2013,2000,H27.5,0.15
# From MPO233481
2012 LJ,e,0.6858,239.4265,96.0114,2.325528,0.2779212,0.69755283,73.9251,04/18.0/2013,2000,H25.6,0.15
# From MPO233482
2012 LT,e,5.4678,77.6472,189.5445,2.307557,0.2811742,0.55538779,85.8045,04/18.0/2013,2000,H25.8,0.15
# From MPO233482
2012 LU,e,3.1223,88.6152,200.9869,1.529281,0.5211626,0.33433054,147.5205,04/18.0/2013,2000,H25.2,0.15
# From MPO237427
